NORAD_CAT_ID,OBJECT_NAME,OBJECT_TYPE,EPOCH,MEAN_MOTION,ECCENTRICITY,INCLINATION,RA_OF_ASC_NODE,ARG_OF_PERICENTER,MEAN_ANOMALY,BSTAR,MEAN_MOTION_DOT,MEAN_MOTION_DDOT,TLE_LINE0,TLE_LINE1,TLE_LINE2,SEMIMAJOR_AXIS,PERIOD,APOGEE,PERIGEE,DECAYED
53827.0,STARLINK-4764,PAYLOAD,2023-01-04 10:47:11,15.08842333,0.0001602,53.2189,112.6933,49.5719,310.5412,3.8362e-05,3.23e-06,0.0,0 STARLINK-4764,1 53827U 22114K   23004.44944095  .00000323  00000-0  38362-4 0  9997,2 53827  53.2189 112.6933 0001602  49.5719 310.5412 15.08842333 17139,6917.873000000001,95.437,540.847,538.63,0.0
53827.0,STARLINK-4764,PAYLOAD,2023-01-04 13:57:57,15.08841391,0.0001648,53.2188,112.0988,51.6021,308.5119,7.0479e-05,8.34e-06,0.0,0 STARLINK-4764,1 53827U 22114K   23004.58192015  .00000834  00000-0  70479-4 0  9991,2 53827  53.2188 112.0988 0001648  51.6021 308.5119 15.08841391 17697,6917.876,95.437,540.881,538.601,0.0
53827.0,STARLINK-4764,PAYLOAD,2023-01-05 07:27:11,15.08854473,0.0001538,53.2169,108.8253,36.1904,323.9192,0.00012496,1.702e-05,0.0,0 STARLINK-4764,1 53827U 22114K   23005.31054658  .00001702  00000-0  12496-3 0  9992,2 53827  53.2169 108.8253 0001538  36.1904 323.9192 15.08854473 17260,6917.8359999999975,95.437,540.765,538.637,0.0
53827.0,STARLINK-4764,PAYLOAD,2023-01-05 13:48:43,15.08857257,0.0001591,53.2171,107.637,37.5287,322.5815,0.00015755,2.221e-05,0.0,0 STARLINK-4764,1 53827U 22114K   23005.57550113  .00002221  00000-0  15755-3 0  9995,2 53827  53.2171 107.6370 0001591  37.5287 322.5815 15.08857257 17842,6917.828,95.436,540.793,538.592,0.0
53827.0,STARLINK-4764,PAYLOAD,2023-01-05 16:59:29,15.08872032,0.000133,53.2185,107.0445,49.9945,310.1164,-4.8366e-05,-1.058e-05,0.0,0 STARLINK-4764,1 53827U 22114K   23005.70797650 -.00001058  00000-0 -48366-4 0  9993,2 53827  53.2185 107.0445 0001330  49.9945 310.1164 15.08872032 17863,6917.781999999997,95.436,540.568,538.727,0.0
53827.0,STARLINK-4764,PAYLOAD,2023-01-06 07:17:59,15.08831735,0.0001717,53.2196,104.3668,48.5321,311.5818,-6.9986e-05,-1.401e-05,0.0,0 STARLINK-4764,1 53827U 22114K   23006.30416314 -.00001401  00000-0 -69986-4 0  9998,2 53827  53.2196 104.3668 0001717  48.5321 311.5818 15.08831735 17411,6917.906,95.438,540.9580000000002,538.5830000000002,0.0
53827.0,STARLINK-4764,PAYLOAD,2023-01-06 13:39:33,15.08822078,0.0001786999999999,53.2197,103.179,52.1657,307.9497,-0.00024241,-4.142e-05,0.0,0 STARLINK-4764,1 53827U 22114K   23006.56913731 -.00004142  00000-0 -24241-3 0  9990,2 53827  53.2197 103.1790 0001787  52.1657 307.9497 15.08822078 17451,6917.935,95.439,541.036,538.564,0.0
53827.0,STARLINK-4764,PAYLOAD,2023-01-06 23:11:52,15.08823955,0.0001876,53.2173,101.3926,46.5606,313.5542,-0.00021971,-3.782e-05,0.0,0 STARLINK-4764,1 53827U 22114K   23006.96657809 -.00003782  00000-0 -21971-3 0  9991,2 53827  53.2173 101.3926 0001876  46.5606 313.5542 15.08823955 18052,6917.929,95.439,541.092,538.497,0.0
53827.0,STARLINK-4764,PAYLOAD,2023-01-07 23:02:39,15.08832604,0.0001761,53.2181,96.9333,45.2571,314.8564,-0.00012333,-2.25e-05,0.0,0 STARLINK-4764,1 53827U 22114K   23007.96017416 -.00002250  00000-0 -12333-3 0  9997,2 53827  53.2181  96.9333 0001761  45.2571 314.8564 15.08832604 17667,6917.903,95.438,540.986,538.55,0.0
53827.0,STARLINK-4764,PAYLOAD,2023-01-08 11:45:43,15.088355599999998,0.0001749,53.2169,94.553,44.1198,315.9934,0.00016661,2.364e-05,0.0,0 STARLINK-4764,1 53827U 22114K   23008.49008510  .00002364  00000-0  16661-3 0  9993,2 53827  53.2169  94.5530 0001749  44.1198 315.9934 15.08835560 17741,6917.894,95.438,540.969,538.549,0.0
53827.0,STARLINK-4764,PAYLOAD,2023-01-09 05:14:57,15.08832933,0.0002408,53.2167,91.2862,57.0074,303.1149,0.00037243,5.643e-05,0.0,0 STARLINK-4764,1 53827U 22114K   23009.21871883  .00005643  00000-0  37243-3 0  9997,2 53827  53.2167  91.2862 0002408  57.0074 303.1149 15.08832933 17850,6917.901999999999,95.438,541.433,538.101,0.0
53827.0,STARLINK-4764,PAYLOAD,2023-01-09 11:36:30,15.08836821,0.0001899,53.2181,90.0947,49.8419,310.2739,3.336e-05,2.43e-06,0.0,0 STARLINK-4764,1 53827U 22114K   23009.48368688  .00000243  00000-0  33360-4 0  9998,2 53827  53.2181  90.0947 0001899  49.8419 310.2739 15.08836821 18431,6917.89,95.438,541.069,538.441,0.0
53827.0,STARLINK-4764,PAYLOAD,2023-01-10 11:27:17,15.08841375,0.000185,53.2188,85.6345,45.5401,314.5743,-5.5572e-05,-1.173e-05,0.0,0 STARLINK-4764,1 53827U 22114K   23010.47728810 -.00001173  00000-0 -55572-4 0  9990,2 53827  53.2188  85.6345 0001850  45.5401 314.5743 15.08841375 18589,6917.876,95.437,541.021,538.461,0.0
53827.0,STARLINK-4764,PAYLOAD,2023-01-10 14:38:03,15.08905008,0.0002325,53.2179,85.0392,71.5349,288.5896,-0.00081198,-0.00013211,0.0,0 STARLINK-4764,1 53827U 22114K   23010.60975926 -.00013211  00000-0 -81198-3 0  9995,2 53827  53.2179  85.0392 0002325  71.5349 288.5896 15.08905008 18069,6917.682,95.433,541.155,537.938,0.0
53827.0,STARLINK-4764,PAYLOAD,2023-01-11 12:53:26,15.08857236,0.0001873,53.2183,80.876,46.9216,313.1933,0.00019762,2.8600000000000007e-05,0.0,0 STARLINK-4764,1 53827U 22114K   23011.53710719  .00002860  00000-0  19762-3 0  9999,2 53827  53.2183  80.8760 0001873  46.9216 313.1933 15.08857236 18204,6917.828,95.436,540.988,538.3969999999998,0.0
53827.0,STARLINK-4764,PAYLOAD,2023-01-11 14:28:49,15.08857151,0.0001875,53.2189,80.5793,46.7933,313.3216,0.00019478,2.815e-05,0.0,0 STARLINK-4764,1 53827U 22114K   23011.60334690  .00002815  00000-0  19478-3 0  9991,2 53827  53.2189  80.5793 0001875  46.7933 313.3216 15.08857151 18751,6917.828,95.436,540.99,538.396,0.0
53827.0,STARLINK-4764,PAYLOAD,2023-01-12 11:08:53,15.08822974,0.0001934,53.218,76.7128,58.6581,301.46,-7.6622e-05,-1.507e-05,0.0,0 STARLINK-4764,1 53827U 22114K   23012.46450356 -.00001507  00000-0 -76622-4 0  9998,2 53827  53.2180  76.7128 0001934  58.6581 301.4600 15.08822974 18343,6917.932,95.439,541.135,538.46,0.0
53827.0,STARLINK-4764,PAYLOAD,2023-01-12 20:41:12,15.08825304,0.0001669,53.2177,74.9291,48.9376,311.176,-6.444e-05,-1.313e-05,0.0,0 STARLINK-4764,1 53827U 22114K   23012.86194552 -.00001313  00000-0 -64440-4 0  9995,2 53827  53.2177  74.9291 0001669  48.9376 311.1760 15.08825304 18940,6917.925,95.438,540.945,538.636,0.0
53827.0,STARLINK-4764,PAYLOAD,2023-01-13 10:59:40,15.0883887,0.0001614,53.2192,72.2583,74.9708,285.1463,-0.00014907,-2.6600000000000003e-05,0.0,0 STARLINK-4764,1 53827U 22114K   23013.45810504 -.00002660  00000-0 -14907-3 0  9991,2 53827  53.2192  72.2583 0001614  74.9708 285.1463 15.08838870 18492,6917.884,95.438,540.865,538.632,0.0
53827.0,STARLINK-4764,PAYLOAD,2023-01-13 20:31:58,15.08842252,0.0001541999999999,53.218,70.4723,65.9391,294.1762,-0.00013317,-2.407e-05,0.0,0 STARLINK-4764,1 53827U 22114K   23013.85554307 -.00002407  00000-0 -13317-3 0  9994,2 53827  53.2180  70.4723 0001542  65.9391 294.1762 15.08842252 19091,6917.874,95.437,540.805,538.672,0.0
53827.0,STARLINK-4764,PAYLOAD,2023-01-14 20:22:46,15.08830141,0.00013,53.2179,66.0091,71.2517,288.8616,8.697e-05,1.096e-05,0.0,0 STARLINK-4764,1 53827U 22114K   23014.84915195  .00001096  00000-0  86970-4 0  9997,2 53827  53.2179  66.0091 0001300  71.2517 288.8616 15.08830141 18709,6917.911,95.438,540.675,538.876,0.0
53827.0,STARLINK-4764,PAYLOAD,2023-01-15 12:16:38,15.08833628,0.0001743,53.2163,63.0365,81.3344,278.7845,6.7429e-06,-1.81e-06,0.0,0 STARLINK-4764,1 53827U 22114K   23015.51155885 -.00000181  00000-0  67429-5 0  9998,2 53827  53.2163  63.0365 0001743  81.3344 278.7845 15.08833628 19340,6917.9,95.438,540.971,538.559,0.0
53827.0,STARLINK-4764,PAYLOAD,2023-01-15 20:13:33,15.08840889,0.0001709,53.2168,61.5497,82.3384,277.7803,6.947600000000001e-05,8.18e-06,0.0,0 STARLINK-4764,1 53827U 22114K   23015.84275276  .00000818  00000-0  69476-4 0  9990,2 53827  53.2168  61.5497 0001709  82.3384 277.7803 15.08840889 19396,6917.878000000001,95.437,540.925,538.56,0.0
53827.0,STARLINK-4764,PAYLOAD,2023-01-16 07:21:14,15.08854696,0.0001615,53.2178,59.4676,81.0565,279.061,0.00014927,2.089e-05,0.0,0 STARLINK-4764,1 53827U 22114K   23016.30641960  .00002089  00000-0  14927-3 0  9991,2 53827  53.2178  59.4676 0001615  81.0565 279.0610 15.08854696 18925,6917.835,95.437,540.818,538.5830000000001,0.0
53827.0,STARLINK-4764,PAYLOAD,2023-01-16 10:31:59,15.08870452,0.0001386999999999,53.22,58.8715,79.684,280.4309,0.00017349,2.476e-05,0.0,0 STARLINK-4764,1 53827U 22114K   23016.43888686  .00002476  00000-0  17349-3 0  9994,2 53827  53.2200  58.8715 0001387  79.6840 280.4309 15.08870452 18944,6917.786999999999,95.436,540.612,538.693,0.0
53827.0,STARLINK-4764,PAYLOAD,2023-01-16 20:04:21,15.0883236,0.0001749,53.2197,57.0881,69.5442,290.5737,-4.9322e-05,-1.073e-05,0.0,0 STARLINK-4764,1 53827U 22114K   23016.83635821 -.00001073  00000-0 -49322-4 0  9990,2 53827  53.2197  57.0881 0001749  69.5442 290.5737 15.08832360 19003,6917.904,95.438,540.979,538.559,0.0
53827.0,STARLINK-4764,PAYLOAD,2023-01-17 02:25:55,15.08810435,0.0001818,53.2166,55.8997,75.3725,284.7469,-0.00015003,-2.673e-05,0.0,0 STARLINK-4764,1 53827U 22114K   23017.10133769 -.00002673  00000-0 -15003-3 0  9990,2 53827  53.2166  55.8997 0001818  75.3725 284.7469 15.08810435 19049,6917.971,95.439,541.0930000000001,538.578,0.0
53827.0,STARLINK-4764,PAYLOAD,2023-01-17 11:58:14,15.08823004,0.0001234,53.2192,54.1139,75.0364,285.0765,-0.00014235,-2.552e-05,0.0,0 STARLINK-4764,1 53827U 22114K   23017.49877414 -.00002552  00000-0 -14235-3 0  9996,2 53827  53.2192  54.1139 0001234  75.0364 285.0765 15.08823004 19102,6917.932,95.439,540.651,538.944,0.0
53827.0,STARLINK-4764,PAYLOAD,2023-01-17 23:05:55,15.08833141,0.0001032,53.2204,52.034,61.6021,298.5075,-4.3964e-05,-9.87e-06,0.0,0 STARLINK-4764,1 53827U 22114K   23017.96244661 -.00000987  00000-0 -43964-4 0  9992,2 53827  53.2204  52.0340 0001032  61.6021 298.5075 15.08833141 19177,6917.901,95.438,540.48,539.052,0.0
